      2.10          N: GNSS NAV DATA                        RINEX VERSION / TYPE
fic2rin                                 08/30/2018 00:07:53 PGM / RUN BY / DATE
                                                            END OF HEADER
18 18  8 29 20  0  0.0 5.127862095833e-05 4.320099833421e-12 0.000000000000e+00
    7.500000000000e+01 3.000000000000e+01 5.200573767629e-09-2.454637572959e+00
    1.465901732445e-06 1.495830726344e-02 3.114342689514e-06 5.153628047943e+03
    3.312000000000e+05 2.160668373108e-07 1.856410097675e+00 2.048909664154e-08
    9.504698793427e-01 3.103125000000e+02 1.341806562989e+00-8.374277393696e-09
    4.071598169835e-10 1.000000000000e+00 2.016000000000e+03 0.000000000000e+00
    2.400000000000e+00 0.000000000000e+00-6.519258022308e-09 7.500000000000e+01
    3.240060000000e+05 4.000000000000e+00
29 18  8 29 20  0  0.0 3.866339102387e-04-7.275957614183e-12 0.000000000000e+00
    5.500000000000e+01 5.746875000000e+01 3.821587755898e-09 5.938177252461e-01
    2.810731530190e-06 8.245608769357e-04 1.019984483719e-05 5.153641775131e+03
    3.312000000000e+05-9.313225746155e-09 9.145087460343e-01-1.303851604462e-08
    9.844928905034e-01 1.926875000000e+02 1.554388939819e+00-7.716035689572e-09
    3.510860527148e-10 1.000000000000e+00 2.016000000000e+03 0.000000000000e+00
    2.400000000000e+00 0.000000000000e+00-1.024454832077e-08 5.500000000000e+01
    3.240060000000e+05 4.000000000000e+00
31 18  8 29 20  0  0.0 9.723845869303e-05-2.614797267597e-12 0.000000000000e+00
    1.120000000000e+02 2.731250000000e+01 4.834129932344e-09-3.067074823589e+00
    1.367181539536e-06 8.829400292598e-03 3.959983587265e-06 5.153722726822e+03
    3.312000000000e+05-6.332993507385e-08-1.211088692740e+00 1.303851604462e-08
    9.619763781089e-01 3.070312500000e+02-1.169356883036e-01-8.299988584983e-09
    4.643050544549e-11 1.000000000000e+00 2.016000000000e+03 0.000000000000e+00
    2.400000000000e+00 0.000000000000e+00-1.350417733192e-08 1.120000000000e+02
    3.240060000000e+05 4.000000000000e+00
27 18  8 29 20  0  0.0 3.498196601868e-04-3.296918293927e-12 0.000000000000e+00
    1.010000000000e+02 4.893750000000e+01 3.954807590753e-09-3.218519691693e-02
    2.622604370117e-06 6.019148160703e-03 1.131370663643e-05 5.153697284698e+03
    3.312000000000e+05 9.126961231232e-08 8.491877114596e-01 5.401670932770e-08
    9.778756161017e-01 1.719375000000e+02 4.563024178444e-01-7.867827726606e-09
    3.389426897521e-10 1.000000000000e+00 2.016000000000e+03 0.000000000000e+00
    3.400000000000e+00 0.000000000000e+00 1.862645149231e-09 1.010000000000e+02
    3.240060000000e+05 4.000000000000e+00
20 18  8 29 20  0  0.0 5.149659700692e-04 5.684341886081e-13 0.000000000000e+00
    5.900000000000e+01-7.665625000000e+01 5.440583765009e-09-2.339032066326e+00
   -3.822147846222e-06 4.192638560198e-03 7.130205631256e-06 5.153673748016e+03
    3.312000000000e+05-5.215406417847e-08 2.835941137246e+00 7.636845111847e-08
    9.292622470683e-01 2.246562500000e+02 2.088353136131e+00-8.488210710904e-09
   -3.346567969417e-10 1.000000000000e+00 2.016000000000e+03 0.000000000000e+00
    2.400000000000e+00 0.000000000000e+00-8.381903171539e-09 5.900000000000e+01
    3.240060000000e+05 4.000000000000e+00
28 18  8 29 20  0  0.0 7.413183338940e-04 2.387423592154e-12 0.000000000000e+00
    8.300000000000e+01-5.912500000000e+01 3.941592754588e-09 8.778936941961e-01
   -3.209337592125e-06 1.950781908818e-02 9.223818778992e-06 5.153688444138e+03
    3.312000000000e+05-2.104789018631e-07-1.064274702056e-01-2.477318048477e-07
    9.852925990602e-01 2.195000000000e+02-1.515618924800e+00-8.126052768429e-09
   -4.564475843026e-10 1.000000000000e+00 2.016000000000e+03 0.000000000000e+00
    4.850000000000e+00 0.000000000000e+00-1.117587089539e-08 8.300000000000e+01
    3.240060000000e+05 4.000000000000e+00
24 18  8 29 20  0  0.0-5.464255809784e-05-5.684341886081e-13 0.000000000000e+00
    1.750000000000e+02 3.456250000000e+01 5.195216401616e-09-1.866870883580e+00
    1.868233084679e-06 7.152210222557e-03 4.107132554054e-06 5.153627878189e+03
    3.312000000000e+05-1.862645149231e-09-1.285377909606e+00-8.754432201385e-08
    9.404288324299e-01 2.907812500000e+02 5.344853038240e-01-8.477138821144e-09
    1.450060400836e-10 1.000000000000e+00 2.016000000000e+03 0.000000000000e+00
    3.400000000000e+00 0.000000000000e+00 2.793967723846e-09 1.750000000000e+02
    3.240060000000e+05 4.000000000000e+00
 2 18  8 29 22  0  0.0 1.349905505776e-05-1.114131009672e-11 0.000000000000e+00
    7.600000000000e+01 3.071875000000e+01 5.269862368063e-09-8.719655814836e-01
    2.002343535423e-06 1.801167021040e-02 4.485249519348e-06 5.153796899796e+03
    3.384000000000e+05-1.993030309677e-07 1.842466574883e+00 3.147870302200e-07
    9.511277170300e-01 2.934062500000e+02-1.834951267737e+00-8.792866258173e-09
    3.257278535868e-10 1.000000000000e+00 2.016000000000e+03 0.000000000000e+00
    2.400000000000e+00 0.000000000000e+00-2.048909664154e-08 7.600000000000e+01
    3.312060000000e+05 4.000000000000e+00
 5 18  8 29 22  0  0.0-2.576969563961e-06 4.547473508865e-13 0.000000000000e+00
    6.700000000000e+01-8.193750000000e+01 5.045567310988e-09 1.782110593568e+00
   -4.155561327934e-06 5.591312074102e-03 7.962808012962e-06 5.153775167465e+03
    3.384000000000e+05-1.192092895508e-07 2.925363616977e+00 2.793967723846e-08
    9.487505248904e-01 2.226250000000e+02 6.684958896057e-01-8.361776872999e-09
   -3.468001599044e-10 1.000000000000e+00 2.016000000000e+03 0.000000000000e+00
    2.400000000000e+00 0.000000000000e+00-1.117587089539e-08 6.700000000000e+01
    3.312060000000e+05 4.000000000000e+00
 3 18  8 29 22  0  0.0 1.289099454880e-04 5.456968210638e-12 0.000000000000e+00
    7.500000000000e+01-8.109375000000e+01 4.681266422108e-09-2.185342300690e+00
   -4.198402166367e-06 1.676031621173e-03 8.525326848030e-06 5.153692878723e+03
    3.384000000000e+05 9.313225746155e-08 2.948469376682e+00-1.303851604462e-08
    9.618769391783e-01 2.150000000000e+02 5.924799305501e-01-8.180697901761e-09
   -3.396570052205e-10 1.000000000000e+00 2.016000000000e+03 0.000000000000e+00
    2.400000000000e+00 0.000000000000e+00 1.862645149231e-09 7.500000000000e+01
    3.312060000000e+05 4.000000000000e+00
 8 18  8 29 22  0  0.0-1.133526675403e-04-1.250555214938e-12 0.000000000000e+00
    2.300000000000e+01 4.968750000000e+01 3.984451682692e-09 1.376500774131e+00
    2.574175596237e-06 3.494124859571e-03 1.130811870098e-05 5.153623697281e+03
    3.384000000000e+05 5.029141902924e-08 8.399241484522e-01 8.568167686462e-08
    9.696674855829e-01 1.652812500000e+02-4.023452650781e-01-7.798896283906e-09
    2.750114553310e-10 1.000000000000e+00 2.016000000000e+03 0.000000000000e+00
    2.400000000000e+00 0.000000000000e+00 5.122274160385e-09 2.300000000000e+01
    3.312060000000e+05 4.000000000000e+00
13 18  8 29 22  0  0.0-9.013991802931e-05 6.821210263297e-13 0.000000000000e+00
    1.900000000000e+01 4.306250000000e+01 4.403754862638e-09-2.153805689966e-01
    2.399086952209e-06 3.338606329635e-03 1.040659844875e-05 5.153670825958e+03
    3.384000000000e+05 2.793967723846e-08-2.168654573259e+00-3.539025783539e-08
    9.683015297140e-01 1.802187500000e+02 1.486398771709e+00-8.030691653399e-09
    2.242950570751e-10 1.000000000000e+00 2.016000000000e+03 0.000000000000e+00
    2.400000000000e+00 0.000000000000e+00-1.117587089539e-08 1.900000000000e+01
    3.312060000000e+05 4.000000000000e+00
21 18  8 29 22  0  0.0-3.450922667980e-04 5.798028723802e-12 0.000000000000e+00
    2.200000000000e+01 3.450000000000e+01 5.132713798132e-09-2.941971624150e+00
    1.570209860802e-06 2.434627013281e-02 3.064051270485e-06 5.153638685226e+03
    3.384000000000e+05 4.023313522339e-07 1.848713962151e+00 1.806765794754e-07
    9.447391025757e-01 3.064687500000e+02-1.532040386512e+00-8.216056517447e-09
    3.435857402966e-10 1.000000000000e+00 2.016000000000e+03 0.000000000000e+00
    2.400000000000e+00 0.000000000000e+00-1.024454832077e-08 2.200000000000e+01
    3.312060000000e+05 4.000000000000e+00
12 18  8 29 22  0  0.0 3.106277436018e-04-2.728484105319e-12 0.000000000000e+00
    2.400000000000e+01-5.556250000000e+01 3.800515449581e-09-2.388817564823e+00
   -2.784654498100e-06 7.030643522739e-03 8.692964911461e-06 5.153781766891e+03
    3.384000000000e+05 1.862645149231e-09-1.295506152288e-01-1.024454832077e-07
    9.859828403829e-01 2.251875000000e+02 1.023768684578e+00-7.620317416808e-09
   -3.793015137162e-10 1.000000000000e+00 2.016000000000e+03 0.000000000000e+00
    2.400000000000e+00 0.000000000000e+00-1.257285475731e-08 2.400000000000e+01
    3.312060000000e+05 4.000000000000e+00
26 18  8 29 22  0  0.0-3.634160384536e-05 1.170974428533e-11 0.000000000000e+00
    2.500000000000e+01-5.650000000000e+01 4.610549190737e-09 2.923483261075e+00
   -2.939254045486e-06 2.865169080906e-03 8.108094334602e-06 5.153710290909e+03
    3.384000000000e+05-4.284083843231e-08-2.140753754301e-01 3.166496753693e-08
    9.549816298809e-01 2.202812500000e+02 7.322094727207e-02-8.156411175836e-09
   -4.360895934534e-10 1.000000000000e+00 2.016000000000e+03 0.000000000000e+00
    2.400000000000e+00 0.000000000000e+00 7.450580596924e-09 2.500000000000e+01
    3.312060000000e+05 4.000000000000e+00
14 18  8 29 22  0  0.0-9.749876335263e-05 1.136868377216e-13 0.000000000000e+00
    8.800000000000e+01 4.737500000000e+01 4.554475426468e-09 7.330203857671e-01
    2.538785338402e-06 1.007132639643e-02 1.067109405994e-05 5.153624650955e+03
    3.384000000000e+05-1.266598701477e-07-2.211204601822e+00 4.842877388000e-08
    9.608929365906e-01 1.776875000000e+02-1.943196077185e+00-8.178912113090e-09
    1.371485699313e-10 1.000000000000e+00 2.016000000000e+03 0.000000000000e+00
    2.400000000000e+00 0.000000000000e+00-9.778887033463e-09 8.800000000000e+01
    3.312060000000e+05 4.000000000000e+00
